YAMAL 401               
1 40345U 14082A   26177.11316913 -.00000217  00000+0  00000+0 0  9998
2 40345   0.0083 315.9701 0000876 157.5653 291.3942  1.00270329 42008
ASTRA 2G                
1 40364U 14089A   26178.17026251  .00000162  00000+0  00000+0 0  9994
2 40364   0.0498 336.4437 0004801 103.0543 285.2640  1.00273998 42067
FENGYUN 2G              
1 40367U 14090A   26177.68534693 -.00000296  00000+0  00000+0 0  9997
2 40367   5.6634  72.7057 0003579 150.4754  37.9966  1.00269056 42098
MUOS-3                  
1 40374U 15002A   26178.07614207 -.00000121  00000+0  00000+0 0  9990
2 40374   4.5392  43.5621 0052585 177.8001  65.7846  1.00270886 41680
INMARSAT 5-F2           
1 40384U 15005A   26178.15379578 -.00000274  00000+0  00000+0 0  9991
2 40384   0.0192  11.7419 0000412  82.8678 181.0131  1.00270569 41091
ABS-3A                  
1 40424U 15010A   26178.16410916  .00000000  00000+0  00000+0 0  9991
2 40424   0.0429  53.0245 0001738 357.9915 280.3609  1.00271025 41470
EUTELSAT 115 WEST B     
1 40425U 15010B   26178.15530876 -.00000013  00000+0  00000+0 0  9994
2 40425   0.0422 181.6045 0000360  51.5128 343.1683  1.00269280 41484
EXPRESS-AM7             
1 40505U 15012A   26178.17260252  .00000000  00000+0  00000+0 0  9990
2 40505   0.0266  13.6137 0003235  88.1933 275.6193  1.00269035 41101
BEIDOU-3S IGSO-1S       
1 40549U 15019A   26177.69534973 -.00000170  00000+0  00000+0 0  9994
2 40549  49.1760 295.3462 0039049 191.6970 128.6573  1.00249401 41165
THOR 7                  
1 40613U 15022A   26178.16454249  .00000003  00000+0  00000+0 0  9994
2 40613   0.0219 103.3076 0002680 348.1312 242.4102  1.00271803 40917
TURKMENALEM52E/MONACOSAT
1 40617U 15023A   26178.17494255  .00000116  00000+0  00000+0 0  9996
2 40617   0.0234  69.7157 0003051  16.5233 304.0545  1.00269965 40949
DIRECTV 15              
1 40663U 15026A   26178.14432051 -.00000091  00000+0  00000+0 0  9996
2 40663   0.0167  58.7063 0000425  10.0991 155.5353  1.00272582 40564
SKY MEXICO-1            
1 40664U 15026B   26178.19003037 -.00000223  00000+0  00000+0 0  9997
2 40664   0.0154 341.9092 0002591 130.6397 152.3678  1.00272001 40555
METEOSAT-11 (MSG-4)     
1 40732U 15034A   26178.16653582  .00000070  00000+0  00000+0 0  9994
2 40732   3.2255  71.0480 0002243 347.4242 286.1812  1.00266192  7318
STAR ONE C4             
1 40733U 15034B   26178.18447568 -.00000253  00000+0  00000+0 0  9996
2 40733   0.0246 333.0892 0002175  96.9445 201.6836  1.00270948 40114
WGS F7 (USA 263)        
1 40746U 15036A   26178.05662686  .00000000  00000+0  00000+0 0  9997
2 40746   0.0425  55.2950 0000652 134.9470 280.2783  1.00270567 39977
INTELSAT 34 (IS-34)     
1 40874U 15039A   26178.12753169 -.00000274  00000+0  00000+0 0  9991
2 40874   0.0102  13.0827 0000622  29.5062 223.0656  1.00273561 39734
EUTELSAT 8 WEST B       
1 40875U 15039B   26178.16306916 -.00000054  00000+0  00000+0 0  9996
2 40875   0.0634   7.8649 0003747  84.5569 233.5576  1.00271675 39755
GSAT-6                  
1 40880U 15041A   26178.18100924 -.00000150  00000+0  00000+0 0  9995
2 40880   1.9443  82.4719 0003121   6.3505 334.1638  1.00270643 39698
INMARSAT 5-F3           
1 40882U 15042A   26178.12890535  .00000062  00000+0  00000+0 0  9997
2 40882   0.0188  21.9777 0000449  85.0372  34.2284  1.00271900 39674
MUOS-4                  
1 40887U 15044A   26178.17953589 -.00000085  00000+0  00000+0 0  9994
2 40887   4.3482  42.3052 0057804   2.9903   9.6129  1.00272368 39663
TJS-1                   
1 40892U 15046A   26178.13655910 -.00000145  00000+0  00000+0 0  9992
2 40892   0.3489  84.9166 0005927   5.4770  29.0465  1.00270721 39670
EXPRESS-AM8             
1 40895U 15048A   26177.66283573 -.00000100  00000+0  00000+0 0  9997
2 40895   0.0168 328.7711 0000410  85.7051  84.9254  1.00271665 39443
BEIDOU-3S IGSO-2S       
1 40938U 15053A   26177.68456693 -.00000116  00000+0  00000+0 0  9995
2 40938  49.2053 258.6677 0065522 192.9538 164.2588  1.00257789 39440
SKY MUSTER 1 (NBN1A)    
1 40940U 15054A   26177.97855154 -.00000267  00000+0  00000+0 0  9993
2 40940   0.0183 342.6778 0002024 109.9041 315.0433  1.00273843 39357
ARSAT 2                 
1 40941U 15054B   26178.14865388 -.00000213  00000+0  00000+0 0  9995
2 40941   0.0116 341.1178 0002260 104.1365 162.5254  1.00272339 39401
MORELOS 3               
1 40946U 15056A   26178.14224051 -.00000034  00000+0  00000+0 0  9999
2 40946   3.1949  15.3256 0000577   1.5265 196.5116  1.00272417 39387
APSTAR-9                
1 40982U 15059A   26178.26355911 -.00000254  00000+0  00000+0 0  9999
2 40982   0.0313 308.6360 0002660 228.7296 334.8884  1.00274629 39223
TURKSAT 4B              
1 40984U 15060A   26178.17450920  .00000127  00000+0  00000+0 0  9997
2 40984   0.0129  50.0914 0002499  41.6425 296.3204  1.00272446 39198
ZHONGXING-2C            
1 41021U 15063A   26178.11382402 -.00000313  00000+0  00000+0 0  9994
2 41021   0.2998  89.3959 0007595  95.4517 234.7911  1.00274305 39076
GSAT-15                 
1 41028U 15065A   26178.11191735 -.00000246  00000+0  00000+0 0  9995
2 41028   0.0487 263.7322 0004599 173.1026 332.2023  1.00271005 38897
BADR-7 (ARABSAT-6B)     
1 41029U 15065B   26178.16982919  .00000156  00000+0  00000+0 0  9992
2 41029   0.0184 251.5574 0003958 303.5881 167.2528  1.00273317 38863
